CCSDS_OMM_VERS = 2.0
CREATION_DATE  = 
ORIGINATOR     = 

OBJECT_NAME    = IDEFIX & ARIANE 42P R/B
OBJECT_ID      = 2002-021B
CENTER_NAME    = EARTH
REF_FRAME      = TEME
TIME_SYSTEM    = UTC
MEAN_ELEMENT_THEORY = SGP/SGP4

EPOCH          = 2025-12-08T19:22:36.457824
MEAN_MOTION    = 14.30946463
ECCENTRICITY   = .00129273
INCLINATION    = 98.5780
RA_OF_ASC_NODE = 277.5494
ARG_OF_PERICENTER = 94.1611
MEAN_ANOMALY   = 266.1050

EPHEMERIS_TYPE = 0
CLASSIFICATION_TYPE = U
NORAD_CAT_ID   = 27422
ELEMENT_SET_NO = 999
REV_AT_EPOCH   = 23102
BSTAR          = .27008896E-3
MEAN_MOTION_DOT = .667E-5
MEAN_MOTION_DDOT = 0

CCSDS_OMM_VERS = 2.0
CREATION_DATE  = 
ORIGINATOR     = 

OBJECT_NAME    = AQUA
OBJECT_ID      = 2002-022A
CENTER_NAME    = EARTH
REF_FRAME      = TEME
TIME_SYSTEM    = UTC
MEAN_ELEMENT_THEORY = SGP/SGP4

EPOCH          = 2025-12-08T22:12:56.860704
MEAN_MOTION    = 14.61794070
ECCENTRICITY   = .00009432
INCLINATION    = 98.4033
RA_OF_ASC_NODE = 303.7428
ARG_OF_PERICENTER = 114.1667
MEAN_ANOMALY   = 311.7980

EPHEMERIS_TYPE = 0
CLASSIFICATION_TYPE = U
NORAD_CAT_ID   = 27424
ELEMENT_SET_NO = 999
REV_AT_EPOCH   = 25547
BSTAR          = .35762742E-3
MEAN_MOTION_DOT = .1736E-4
MEAN_MOTION_DDOT = 0

CCSDS_OMM_VERS = 2.0
CREATION_DATE  = 
ORIGINATOR     = 

OBJECT_NAME    = CZ-4B R/B
OBJECT_ID      = 2002-024C
CENTER_NAME    = EARTH
REF_FRAME      = TEME
TIME_SYSTEM    = UTC
MEAN_ELEMENT_THEORY = SGP/SGP4

EPOCH          = 2025-12-08T18:21:05.785920
MEAN_MOTION    = 14.14526730
ECCENTRICITY   = .00491558
INCLINATION    = 98.9001
RA_OF_ASC_NODE = 31.5500
ARG_OF_PERICENTER = 281.4272
MEAN_ANOMALY   = 187.8909

EPHEMERIS_TYPE = 0
CLASSIFICATION_TYPE = U
NORAD_CAT_ID   = 27432
ELEMENT_SET_NO = 999
REV_AT_EPOCH   = 21638
BSTAR          = .96915368E-4
MEAN_MOTION_DOT = .143E-5
MEAN_MOTION_DDOT = 0

CCSDS_OMM_VERS = 2.0
CREATION_DATE  = 
ORIGINATOR     = 

OBJECT_NAME    = MIDORI II (ADEOS-II)
OBJECT_ID      = 2002-056A
CENTER_NAME    = EARTH
REF_FRAME      = TEME
TIME_SYSTEM    = UTC
MEAN_ELEMENT_THEORY = SGP/SGP4

EPOCH          = 2025-12-08T20:45:29.936448
MEAN_MOTION    = 14.29201523
ECCENTRICITY   = .00000609
INCLINATION    = 98.7630
RA_OF_ASC_NODE = 295.8010
ARG_OF_PERICENTER = 35.8536
MEAN_ANOMALY   = 324.2649

EPHEMERIS_TYPE = 0
CLASSIFICATION_TYPE = U
NORAD_CAT_ID   = 27597
ELEMENT_SET_NO = 999
REV_AT_EPOCH   = 19732
BSTAR          = .20119273E-3
MEAN_MOTION_DOT = .466E-5
MEAN_MOTION_DDOT = 0

CCSDS_OMM_VERS = 2.0
CREATION_DATE  = 
ORIGINATOR     = 

OBJECT_NAME    = H-2A R/B
OBJECT_ID      = 2002-056E
CENTER_NAME    = EARTH
REF_FRAME      = TEME
TIME_SYSTEM    = UTC
MEAN_ELEMENT_THEORY = SGP/SGP4

EPOCH          = 2025-12-08T21:54:17.669664
MEAN_MOTION    = 14.33670954
ECCENTRICITY   = .00714666
INCLINATION    = 98.3058
RA_OF_ASC_NODE = 301.8219
ARG_OF_PERICENTER = 72.3660
MEAN_ANOMALY   = 352.7034

EPHEMERIS_TYPE = 0
CLASSIFICATION_TYPE = U
NORAD_CAT_ID   = 27601
ELEMENT_SET_NO = 999
REV_AT_EPOCH   = 20110
BSTAR          = .20609104E-3
MEAN_MOTION_DOT = .547E-5
MEAN_MOTION_DDOT = 0

CCSDS_OMM_VERS = 2.0
CREATION_DATE  = 
ORIGINATOR     = 

OBJECT_NAME    = CZ-4B R/B
OBJECT_ID      = 2003-049C
CENTER_NAME    = EARTH
REF_FRAME      = TEME
TIME_SYSTEM    = UTC
MEAN_ELEMENT_THEORY = SGP/SGP4

EPOCH          = 2025-12-08T22:48:55.321920
MEAN_MOTION    = 14.54903550
ECCENTRICITY   = .00488138
INCLINATION    = 98.6785
RA_OF_ASC_NODE = 329.3715
ARG_OF_PERICENTER = 147.4629
MEAN_ANOMALY   = 212.9591

EPHEMERIS_TYPE = 0
CLASSIFICATION_TYPE = U
NORAD_CAT_ID   = 28059
ELEMENT_SET_NO = 999
REV_AT_EPOCH   = 17340
BSTAR          = .14891921E-3
MEAN_MOTION_DOT = .599E-5
MEAN_MOTION_DDOT = 0

CCSDS_OMM_VERS = 2.0
CREATION_DATE  = 
ORIGINATOR     = 

OBJECT_NAME    = CZ-2C R/B
OBJECT_ID      = 2004-012C
CENTER_NAME    = EARTH
REF_FRAME      = TEME
TIME_SYSTEM    = UTC
MEAN_ELEMENT_THEORY = SGP/SGP4

EPOCH          = 2025-12-08T22:38:46.557888
MEAN_MOTION    = 15.55130433
ECCENTRICITY   = .00166736
INCLINATION    = 97.7423
RA_OF_ASC_NODE = 35.2517
ARG_OF_PERICENTER = 285.3552
MEAN_ANOMALY   = 74.5858

EPHEMERIS_TYPE = 0
CLASSIFICATION_TYPE = U
NORAD_CAT_ID   = 28222
ELEMENT_SET_NO = 999
REV_AT_EPOCH   = 19013
BSTAR          = .65458867E-3
MEAN_MOTION_DOT = .44431E-3
MEAN_MOTION_DDOT = 0

CCSDS_OMM_VERS = 2.0
CREATION_DATE  = 
ORIGINATOR     = 

OBJECT_NAME    = SL-16 R/B
OBJECT_ID      = 2004-021B
CENTER_NAME    = EARTH
REF_FRAME      = TEME
TIME_SYSTEM    = UTC
MEAN_ELEMENT_THEORY = SGP/SGP4

EPOCH          = 2025-12-08T22:39:58.050432
MEAN_MOTION    = 14.14581684
ECCENTRICITY   = .00055014
INCLINATION    = 71.0022
RA_OF_ASC_NODE = 62.9298
ARG_OF_PERICENTER = 205.9959
MEAN_ANOMALY   = 154.0888

EPHEMERIS_TYPE = 0
CLASSIFICATION_TYPE = U
NORAD_CAT_ID   = 28353
ELEMENT_SET_NO = 999
REV_AT_EPOCH   = 11000
BSTAR          = -.71438434E-4
MEAN_MOTION_DOT = -.185E-5
MEAN_MOTION_DDOT = 0

CCSDS_OMM_VERS = 2.0
CREATION_DATE  = 
ORIGINATOR     = 

OBJECT_NAME    = CZ-4B R/B
OBJECT_ID      = 2004-035C
CENTER_NAME    = EARTH
REF_FRAME      = TEME
TIME_SYSTEM    = UTC
MEAN_ELEMENT_THEORY = SGP/SGP4

EPOCH          = 2025-12-08T15:07:46.032096
MEAN_MOTION    = 15.27266918
ECCENTRICITY   = .0031776
INCLINATION    = 97.3609
RA_OF_ASC_NODE = 13.0292
ARG_OF_PERICENTER = 292.8603
MEAN_ANOMALY   = 66.9282

EPHEMERIS_TYPE = 0
CLASSIFICATION_TYPE = U
NORAD_CAT_ID   = 28415
ELEMENT_SET_NO = 999
REV_AT_EPOCH   = 16600
BSTAR          = .40566E-3
MEAN_MOTION_DOT = .10928E-3
MEAN_MOTION_DDOT = 0

CCSDS_OMM_VERS = 2.0
CREATION_DATE  = 
ORIGINATOR     = 

OBJECT_NAME    = CZ-2C R/B
OBJECT_ID      = 2004-046B
CENTER_NAME    = EARTH
REF_FRAME      = TEME
TIME_SYSTEM    = UTC
MEAN_ELEMENT_THEORY = SGP/SGP4

EPOCH          = 2025-12-08T18:02:33.042048
MEAN_MOTION    = 14.26937931
ECCENTRICITY   = .01406147
INCLINATION    = 98.1987
RA_OF_ASC_NODE = 258.3776
ARG_OF_PERICENTER = 64.0079
MEAN_ANOMALY   = 297.5509

EPHEMERIS_TYPE = 0
CLASSIFICATION_TYPE = U
NORAD_CAT_ID   = 28480
ELEMENT_SET_NO = 999
REV_AT_EPOCH   = 9553
BSTAR          = .1556355E-3
MEAN_MOTION_DOT = .38E-5
MEAN_MOTION_DDOT = 0

CCSDS_OMM_VERS = 2.0
CREATION_DATE  = 
ORIGINATOR     = 

OBJECT_NAME    = ARIANE 5 R/B
OBJECT_ID      = 2004-049H
CENTER_NAME    = EARTH
REF_FRAME      = TEME
TIME_SYSTEM    = UTC
MEAN_ELEMENT_THEORY = SGP/SGP4

EPOCH          = 2025-12-08T22:43:09.178464
MEAN_MOTION    = 14.84997276
ECCENTRICITY   = .00833826
INCLINATION    = 98.2522
RA_OF_ASC_NODE = 143.0920
ARG_OF_PERICENTER = 285.4313
MEAN_ANOMALY   = 73.7701

EPHEMERIS_TYPE = 0
CLASSIFICATION_TYPE = U
NORAD_CAT_ID   = 28499
ELEMENT_SET_NO = 999
REV_AT_EPOCH   = 13232
BSTAR          = .18975167E-3
MEAN_MOTION_DOT = .1656E-4
MEAN_MOTION_DDOT = 0

CCSDS_OMM_VERS = 2.0
CREATION_DATE  = 
ORIGINATOR     = 

OBJECT_NAME    = CZ-2D R/B
OBJECT_ID      = 2005-024B
CENTER_NAME    = EARTH
REF_FRAME      = TEME
TIME_SYSTEM    = UTC
MEAN_ELEMENT_THEORY = SGP/SGP4

EPOCH          = 2025-12-08T23:38:12.365376
MEAN_MOTION    = 15.52880343
ECCENTRICITY   = .0006048
INCLINATION    = 97.3633
RA_OF_ASC_NODE = 350.3332
ARG_OF_PERICENTER = 19.1913
MEAN_ANOMALY   = 340.9566

EPHEMERIS_TYPE = 0
CLASSIFICATION_TYPE = U
NORAD_CAT_ID   = 28738
ELEMENT_SET_NO = 999
REV_AT_EPOCH   = 12567
BSTAR          = .50259072E-3
MEAN_MOTION_DOT = .31203E-3
MEAN_MOTION_DDOT = 0

