IDEFIX & ARIANE 42P R/B 
1 27422U 02021B   25342.80736641  .00000667  00000+0  27009-3 0  9992
2 27422  98.5780 277.5494 0012927  94.1611 266.1050 14.30946463231025
AQUA                    
1 27424U 02022A   25342.92565811  .00001736  00000+0  35763-3 0  9991
2 27424  98.4033 303.7428 0000943 114.1667 311.7980 14.61794070255478
CZ-4B R/B               
1 27432U 02024C   25342.76465030  .00000143  00000+0  96915-4 0  9994
2 27432  98.9001  31.5500 0049155 281.4272 187.8909 14.14526730216386
MIDORI II (ADEOS-II)    
1 27597U 02056A   25342.86492982  .00000466  00000+0  20119-3 0  9998
2 27597  98.7630 295.8010 0000060  35.8536 324.2649 14.29201523197327
H-2A R/B                
1 27601U 02056E   25342.91270451  .00000547  00000+0  20609-3 0  9999
2 27601  98.3058 301.8219 0071466  72.3660 352.7034 14.33670954201103
CZ-4B R/B               
1 28059U 03049C   25342.95064030  .00000599  00000+0  14892-3 0  9992
2 28059  98.6785 329.3715 0048813 147.4629 212.9591 14.54903550173406
CZ-2C R/B               
1 28222U 04012C   25342.94359442  .00044431  00000+0  65459-3 0  9996
2 28222  97.7423  35.2517 0016673 285.3552  74.5858 15.55130433190137
SL-16 R/B               
1 28353U 04021B   25342.94442188 -.00000185  00000+0 -71438-4 0  9996
2 28353  71.0022  62.9298 0005501 205.9959 154.0888 14.14581684110009
CZ-4B R/B               
1 28415U 04035C   25342.63039389  .00010928  00000+0  40566-3 0  9992
2 28415  97.3609  13.0292 0031776 292.8603  66.9282 15.27266918166000
CZ-2C R/B               
1 28480U 04046B   25342.75177132  .00000380  00000+0  15564-3 0  9999
2 28480  98.1987 258.3776 0140614  64.0079 297.5509 14.26937931 95530
ARIANE 5 R/B            
1 28499U 04049H   25342.94663401  .00001656  00000+0  18975-3 0  9998
2 28499  98.2522 143.0920 0083382 285.4313  73.7701 14.84997276132324
CZ-2D R/B               
1 28738U 05024B   25342.98486534  .00031203  00000+0  50259-3 0  9994
2 28738  97.3633 350.3332 0006048  19.1913 340.9566 15.52880343125675
